STARLINK-2490
1 18147C 21027BH  21326.16200373  .00001598  00000-0  10707-3 0  3267
2 18147  53.0704  17.9309 0001328  68.6518  72.7477 15.06394529    11
